[
    {
        "Altitude(m)": 704205.9300175844,
        "Argument of Periapsis(deg)": 0.011390121186627068,
        "Eccentricity": 0.0,
        "Inclination(deg)": 45.0,
        "Latitude(deg)": 29.682264908263193,
        "Longitude(deg)": 143.76153975066916,
        "Mean Anomaly(deg)": 44.26051664748081,
        "RAAN(deg)": 209.98924805854182,
        "Satellite Name": "Constellation 1 926",
        "Satellite Number": 926,
        "Semi-Major Axis(m)": 7083131.272910544,
        "Time(s)": 190
    },
    {
        "Altitude(m)": 704211.6341152835,
        "Argument of Periapsis(deg)": 0.011450069192872472,
        "Eccentricity": 0.0,
        "Inclination(deg)": 45.0,
        "Latitude(deg)": 29.717780904103886,
        "Longitude(deg)": 143.81415815172235,
        "Mean Anomaly(deg)": 44.321217787730724,
        "RAAN(deg)": 209.9891914693762,
        "Satellite Name": "Constellation 1 926",
        "Satellite Number": 926,
        "Semi-Major Axis(m)": 7083131.272910544,
        "Time(s)": 191
    },
    {
        "Altitude(m)": 704217.3428505714,
        "Argument of Periapsis(deg)": 0.01151001719911788,
        "Eccentricity": 0.0,
        "Inclination(deg)": 45.0,
        "Latitude(deg)": 29.75327239845492,
        "Longitude(deg)": 143.8668164702551,
        "Mean Anomaly(deg)": 44.38191892798061,
        "RAAN(deg)": 209.98913488021066,
        "Satellite Name": "Constellation 1 926",
        "Satellite Number": 926,
        "Semi-Major Axis(m)": 7083131.272910544,
        "Time(s)": 192
    },
    {
        "Altitude(m)": 704223.0561841639,
        "Argument of Periapsis(deg)": 0.011569965205363285,
        "Eccentricity": 0.0,
        "Inclination(deg)": 45.0,
        "Latitude(deg)": 29.788739339457432,
        "Longitude(deg)": 143.9195145962169,
        "Mean Anomaly(deg)": 44.44262006823054,
        "RAAN(deg)": 209.9890782910451,
        "Satellite Name": "Constellation 1 926",
        "Satellite Number": 926,
        "Semi-Major Axis(m)": 7083131.272910544,
        "Time(s)": 193
    },
    {
        "Altitude(m)": 704228.7740767519,
        "Argument of Periapsis(deg)": 0.01162991321160869,
        "Eccentricity": 0.0,
        "Inclination(deg)": 45.0,
        "Latitude(deg)": 29.82418167517926,
        "Longitude(deg)": 143.97225292379522,
        "Mean Anomaly(deg)": 44.50332120848041,
        "RAAN(deg)": 209.98902170187952,
        "Satellite Name": "Constellation 1 926",
        "Satellite Number": 926,
        "Semi-Major Axis(m)": 7083131.272910544,
        "Time(s)": 194
    },
    {
        "Altitude(m)": 704234.4964890338,
        "Argument of Periapsis(deg)": 0.011689861217854095,
        "Eccentricity": 0.0,
        "Inclination(deg)": 45.0,
        "Latitude(deg)": 29.859599353616364,
        "Longitude(deg)": 144.02503134283162,
        "Mean Anomaly(deg)": 44.56402234873029,
        "RAAN(deg)": 209.98896511271397,
        "Satellite Name": "Constellation 1 926",
        "Satellite Number": 926,
        "Semi-Major Axis(m)": 7083131.272910544,
        "Time(s)": 195
    },
    {
        "Altitude(m)": 704240.223381691,
        "Argument of Periapsis(deg)": 0.0117498092240995,
        "Eccentricity": 0.0,
        "Inclination(deg)": 45.0,
        "Latitude(deg)": 29.894992322691838,
        "Longitude(deg)": 144.0778499112097,
        "Mean Anomaly(deg)": 44.62472348898021,
        "RAAN(deg)": 209.98890852354836,
        "Satellite Name": "Constellation 1 926",
        "Satellite Number": 926,
        "Semi-Major Axis(m)": 7083131.272910544,
        "Time(s)": 196
    },
    {
        "Altitude(m)": 704245.9547154122,
        "Argument of Periapsis(deg)": 0.011809757230344905,
        "Eccentricity": 0.0,
        "Inclination(deg)": 45.0,
        "Latitude(deg)": 29.930360530256035,
        "Longitude(deg)": 144.13070868675763,
        "Mean Anomaly(deg)": 44.68542462923014,
        "RAAN(deg)": 209.9888519343828,
        "Satellite Name": "Constellation 1 926",
        "Satellite Number": 926,
        "Semi-Major Axis(m)": 7083131.272910544,
        "Time(s)": 197
    },
    {
        "Altitude(m)": 704251.6904508653,
        "Argument of Periapsis(deg)": 0.011869705236590313,
        "Eccentricity": 0.0,
        "Inclination(deg)": 45.0,
        "Latitude(deg)": 29.965703924086696,
        "Longitude(deg)": 144.1836077272469,
        "Mean Anomaly(deg)": 44.746125769480024,
        "RAAN(deg)": 209.98879534521726,
        "Satellite Name": "Constellation 1 926",
        "Satellite Number": 926,
        "Semi-Major Axis(m)": 7083131.272910544,
        "Time(s)": 198
    },
    {
        "Altitude(m)": 704257.4305487297,
        "Argument of Periapsis(deg)": 0.011929653242835719,
        "Eccentricity": 0.0,
        "Inclination(deg)": 45.0,
        "Latitude(deg)": 30.00102245188877,
        "Longitude(deg)": 144.23654709039212,
        "Mean Anomaly(deg)": 44.806826909729885,
        "RAAN(deg)": 209.98873875605167,
        "Satellite Name": "Constellation 1 926",
        "Satellite Number": 926,
        "Semi-Major Axis(m)": 7083131.272910544,
        "Time(s)": 199
    }
]